{
 "generated_at": "2026-07-11T07:11:30Z",
 "sources": [
  {
   "name": "CelesTrak",
   "url": "https://celestrak.org/NORAD/elements/",
   "license": "frei verfügbar; Attribution. Ursprünglich USSPACECOM/Space-Track."
  },
  {
   "name": "GCAT (J. McDowell, planet4589.org)",
   "url": "https://planet4589.org/space/gcat/",
   "license": "CC-BY 4.0"
  }
 ],
 "satellites": [
  {
   "norad": 43010,
   "name": "FENGYUN 3D",
   "intl": "2017-072A",
   "group": "weather",
   "gcat": {
    "class": "C",
    "category": "MET",
    "owner": "NSMC",
    "state": "CN"
   },
   "omm": {
    "OBJECT_NAME": "FENGYUN 3D",
    "OBJECT_ID": "2017-072A",
    "EPOCH": "2026-07-10T19:50:39.733728",
    "MEAN_MOTION": 14.19744108,
    "ECCENTRICITY": 0.0001745,
    "INCLINATION": 99.0139,
    "RA_OF_ASC_NODE": 166.6774,
    "ARG_OF_PERICENTER": 23.8215,
    "MEAN_ANOMALY": 336.3041,
    "EPHEMERIS_TYPE": 0,
    "CLASSIFICATION_TYPE": "U",
    "NORAD_CAT_ID": 43010,
    "ELEMENT_SET_NO": 999,
    "REV_AT_EPOCH": 44834,
    "BSTAR": 0.000012697,
    "MEAN_MOTION_DOT": -1.9e-7,
    "MEAN_MOTION_DDOT": 0
   }
  },
  {
   "norad": 49008,
   "name": "FENGYUN 3E",
   "intl": "2021-062A",
   "group": "weather",
   "gcat": {
    "class": "C",
    "category": "MET",
    "owner": "NSMC",
    "state": "CN"
   },
   "omm": {
    "OBJECT_NAME": "FENGYUN 3E",
    "OBJECT_ID": "2021-062A",
    "EPOCH": "2026-07-10T21:05:08.399616",
    "MEAN_MOTION": 14.19904579,
    "ECCENTRICITY": 0.0002466,
    "INCLINATION": 98.7503,
    "RA_OF_ASC_NODE": 195.0221,
    "ARG_OF_PERICENTER": 47.0196,
    "MEAN_ANOMALY": 313.1186,
    "EPHEMERIS_TYPE": 0,
    "CLASSIFICATION_TYPE": "U",
    "NORAD_CAT_ID": 49008,
    "ELEMENT_SET_NO": 999,
    "REV_AT_EPOCH": 25994,
    "BSTAR": -0.00017478,
    "MEAN_MOTION_DOT": -0.00000415,
    "MEAN_MOTION_DDOT": 0
   }
  },
  {
   "norad": 57490,
   "name": "FENGYUN 3F",
   "intl": "2023-111A",
   "group": "weather",
   "gcat": {
    "class": "C",
    "category": "MET",
    "owner": "NSMC",
    "state": "CN"
   },
   "omm": {
    "OBJECT_NAME": "FENGYUN 3F",
    "OBJECT_ID": "2023-111A",
    "EPOCH": "2026-07-10T20:41:09.708288",
    "MEAN_MOTION": 14.19942955,
    "ECCENTRICITY": 0.0001361,
    "INCLINATION": 98.6827,
    "RA_OF_ASC_NODE": 261.4285,
    "ARG_OF_PERICENTER": 78.2527,
    "MEAN_ANOMALY": 281.8802,
    "EPHEMERIS_TYPE": 0,
    "CLASSIFICATION_TYPE": "U",
    "NORAD_CAT_ID": 57490,
    "ELEMENT_SET_NO": 999,
    "REV_AT_EPOCH": 15222,
    "BSTAR": 0.000021611,
    "MEAN_MOTION_DOT": 3e-8,
    "MEAN_MOTION_DDOT": 0
   }
  },
  {
   "norad": 56232,
   "name": "FENGYUN 3G",
   "intl": "2023-055A",
   "group": "weather",
   "gcat": {
    "class": "C",
    "category": "MET",
    "owner": "NSMC",
    "state": "CN"
   },
   "omm": {
    "OBJECT_NAME": "FENGYUN 3G",
    "OBJECT_ID": "2023-055A",
    "EPOCH": "2026-07-10T14:08:39.649056",
    "MEAN_MOTION": 15.53651035,
    "ECCENTRICITY": 0.0007155,
    "INCLINATION": 49.9913,
    "RA_OF_ASC_NODE": 225.3462,
    "ARG_OF_PERICENTER": 35.2908,
    "MEAN_ANOMALY": 324.8531,
    "EPHEMERIS_TYPE": 0,
    "CLASSIFICATION_TYPE": "U",
    "NORAD_CAT_ID": 56232,
    "ELEMENT_SET_NO": 999,
    "REV_AT_EPOCH": 18364,
    "BSTAR": 0.00023596,
    "MEAN_MOTION_DOT": 0.00014941,
    "MEAN_MOTION_DDOT": 0
   }
  },
  {
   "norad": 65815,
   "name": "FENGYUN 3H",
   "intl": "2025-219A",
   "group": "weather",
   "gcat": {
    "class": "C",
    "category": "MET",
    "owner": "NSMC",
    "state": "CN"
   },
   "omm": {
    "OBJECT_NAME": "FENGYUN 3H",
    "OBJECT_ID": "2025-219A",
    "EPOCH": "2026-07-09T14:09:54.747936",
    "MEAN_MOTION": 14.19924262,
    "ECCENTRICITY": 0.00012699,
    "INCLINATION": 98.6772,
    "RA_OF_ASC_NODE": 130.9242,
    "ARG_OF_PERICENTER": 63.2177,
    "MEAN_ANOMALY": 296.913,
    "EPHEMERIS_TYPE": 0,
    "CLASSIFICATION_TYPE": "U",
    "NORAD_CAT_ID": 65815,
    "ELEMENT_SET_NO": 999,
    "REV_AT_EPOCH": 4056,
    "BSTAR": 0.000030852092,
    "MEAN_MOTION_DOT": 2.2e-7,
    "MEAN_MOTION_DDOT": 0
   }
  },
  {
   "norad": 41882,
   "name": "FENGYUN 4A",
   "intl": "2016-077A",
   "group": "weather",
   "gcat": {
    "class": "C",
    "category": "MET",
    "owner": "NSMC",
    "state": "CN"
   },
   "omm": {
    "OBJECT_NAME": "FENGYUN 4A",
    "OBJECT_ID": "2016-077A",
    "EPOCH": "2026-07-10T21:02:14.073792",
    "MEAN_MOTION": 1.00270665,
    "ECCENTRICITY": 0.0008429,
    "INCLINATION": 2.3789,
    "RA_OF_ASC_NODE": 80.0254,
    "ARG_OF_PERICENTER": 158.7929,
    "MEAN_ANOMALY": 129.3136,
    "EPHEMERIS_TYPE": 0,
    "CLASSIFICATION_TYPE": "U",
    "NORAD_CAT_ID": 41882,
    "ELEMENT_SET_NO": 999,
    "REV_AT_EPOCH": 3516,
    "BSTAR": 0,
    "MEAN_MOTION_DOT": -0.00000351,
    "MEAN_MOTION_DDOT": 0
   }
  },
  {
   "norad": 42920,
   "name": "FORMOSAT-5",
   "intl": "2017-049A",
   "group": "resource",
   "gcat": {
    "class": "C",
    "category": "IMG/SCI",
    "owner": "NSPO",
    "state": "TW"
   },
   "omm": {
    "OBJECT_NAME": "FORMOSAT-5",
    "OBJECT_ID": "2017-049A",
    "EPOCH": "2026-07-10T20:17:02.310432",
    "MEAN_MOTION": 14.50907058,
    "ECCENTRICITY": 0.001163,
    "INCLINATION": 98.2247,
    "RA_OF_ASC_NODE": 266.6287,
    "ARG_OF_PERICENTER": 17.0607,
    "MEAN_ANOMALY": 343.0977,
    "EPHEMERIS_TYPE": 0,
    "CLASSIFICATION_TYPE": "U",
    "NORAD_CAT_ID": 42920,
    "ELEMENT_SET_NO": 999,
    "REV_AT_EPOCH": 47010,
    "BSTAR": 0.000022037,
    "MEAN_MOTION_DOT": 4.3e-7,
    "MEAN_MOTION_DDOT": 0
   }
  },
  {
   "norad": 39150,
   "name": "GAOFEN-1",
   "intl": "2013-018A",
   "group": "resource",
   "gcat": {
    "class": "C",
    "category": "IMG",
    "owner": "CNSAS",
    "state": "CN"
   },
   "omm": {
    "OBJECT_NAME": "GAOFEN-1",
    "OBJECT_ID": "2013-018A",
    "EPOCH": "2026-07-10T20:23:12.979392",
    "MEAN_MOTION": 14.76516381,
    "ECCENTRICITY": 0.0016688,
    "INCLINATION": 97.9087,
    "RA_OF_ASC_NODE": 263.4355,
    "ARG_OF_PERICENTER": 185.1035,
    "MEAN_ANOMALY": 175.0007,
    "EPHEMERIS_TYPE": 0,
    "CLASSIFICATION_TYPE": "U",
    "NORAD_CAT_ID": 39150,
    "ELEMENT_SET_NO": 999,
    "REV_AT_EPOCH": 71173,
    "BSTAR": 0.000065656,
    "MEAN_MOTION_DOT": 0.00000408,
    "MEAN_MOTION_DDOT": 0
   }
  },
  {
   "norad": 43259,
   "name": "GAOFEN-1 02",
   "intl": "2018-031A",
   "group": "resource",
   "gcat": {
    "class": "C",
    "category": "IMG",
    "owner": "CNSAS",
    "state": "CN"
   },
   "omm": {
    "OBJECT_NAME": "GAOFEN-1 02",
    "OBJECT_ID": "2018-031A",
    "EPOCH": "2026-07-10T21:11:16.645056",
    "MEAN_MOTION": 14.7646911,
    "ECCENTRICITY": 0.0001669,
    "INCLINATION": 98.0518,
    "RA_OF_ASC_NODE": 254.3422,
    "ARG_OF_PERICENTER": 311.2641,
    "MEAN_ANOMALY": 48.8424,
    "EPHEMERIS_TYPE": 0,
    "CLASSIFICATION_TYPE": "U",
    "NORAD_CAT_ID": 43259,
    "ELEMENT_SET_NO": 999,
    "REV_AT_EPOCH": 44619,
    "BSTAR": 0.000090514,
    "MEAN_MOTION_DOT": 0.00000578,
    "MEAN_MOTION_DDOT": 0
   }
  },
  {
   "norad": 43260,
   "name": "GAOFEN-1 03",
   "intl": "2018-031B",
   "group": "resource",
   "gcat": {
    "class": "C",
    "category": "IMG",
    "owner": "CNSAS",
    "state": "CN"
   },
   "omm": {
    "OBJECT_NAME": "GAOFEN-1 03",
    "OBJECT_ID": "2018-031B",
    "EPOCH": "2026-07-10T20:39:42.038208",
    "MEAN_MOTION": 14.76458838,
    "ECCENTRICITY": 0.0002759,
    "INCLINATION": 98.0506,
    "RA_OF_ASC_NODE": 254.1762,
    "ARG_OF_PERICENTER": 27.428,
    "MEAN_ANOMALY": 332.7075,
    "EPHEMERIS_TYPE": 0,
    "CLASSIFICATION_TYPE": "U",
    "NORAD_CAT_ID": 43260,
    "ELEMENT_SET_NO": 999,
    "REV_AT_EPOCH": 44618,
    "BSTAR": 0.000062429,
    "MEAN_MOTION_DOT": 0.00000383,
    "MEAN_MOTION_DDOT": 0
   }
  }
 ]
}
