GAOFEN-1                
1 39150U 13018A   26191.84945578  .00000408  00000+0  65656-4 0  9993
2 39150  97.9087 263.4355 0016688 185.1035 175.0007 14.76516381711731
FENGYUN 4A              
1 41882U 16077A   26191.87655178 -.00000351  00000+0  00000+0 0  9998
2 41882   2.3789  80.0254 0008429 158.7929 129.3136  1.00270665 35164
FORMOSAT-5              
1 42920U 17049A   26191.84516563  .00000043  00000+0  22037-4 0  9999
2 42920  98.2247 266.6287 0011630  17.0607 343.0977 14.50907058470104
FENGYUN 3D              
1 43010U 17072A   26191.82684877 -.00000019  00000+0  12697-4 0  9993
2 43010  99.0139 166.6774 0001745  23.8215 336.3041 14.19744108448348
GAOFEN-1 02             
1 43259U 18031A   26191.88283154  .00000578  00000+0  90514-4 0  9996
2 43259  98.0518 254.3422 0001669 311.2641  48.8424 14.76469110446191
GAOFEN-1 03             
1 43260U 18031B   26191.86090322  .00000383  00000+0  62429-4 0  9997
2 43260  98.0506 254.1762 0002759  27.4280 332.7075 14.76458838446182
FENGYUN 3E              
1 49008U 21062A   26191.87856944 -.00000415  00000+0 -17478-3 0  9993
2 49008  98.7503 195.0221 0002466  47.0196 313.1186 14.19904579259941
FENGYUN 3G              
1 56232U 23055A   26191.58934779  .00014941  00000+0  23596-3 0  9990
2 56232  49.9913 225.3462 0007155  35.2908 324.8531 15.53651035183646
FENGYUN 3F              
1 57490U 23111A   26191.86191792  .00000003  00000+0  21611-4 0  9992
2 57490  98.6827 261.4285 0001361  78.2527 281.8802 14.19942955152227
FENGYUN 3H              
1 65815U 25219A   26190.59021699  .00000022  00000+0  30852-4 0  9998
2 65815  98.6772 130.9242 0001269  63.2177 296.9130 14.19924262 40566
